STARLINK-5832           
1 57063U 23088R   25336.23359760 -.00001534  00000+0 -98554-4 0  9995
2 57063  43.0017 276.6847 0001054 249.4933 110.5796 15.02517597135710
STARLINK-5822           
1 57064U 23088S   25336.20372514 -.00000651  00000+0 -33137-4 0  9990
2 57064  43.0056 277.3241 0001131 266.5418  93.5295 15.02530645134727
STARLINK-5830           
1 57065U 23088T   25336.22369635  .00000083  00000+0  21228-4 0  9998
2 57065  43.0031 277.4596 0001143 270.9988  89.0724 15.02536010134728
STARLINK-5827           
1 57066U 23088U   25336.10394716 -.00000038  00000+0  12256-4 0  9996
2 57066  43.0081 277.4407 0001302 269.5644  90.5050 15.02533224134717
STARLINK-5824           
1 57067U 23088V   25336.20039400  .00000637  00000+0  62252-4 0  9999
2 57067  43.0045 277.2871 0001268 268.6943  91.3754 15.02533152135704
STARLINK-5844           
1 57068U 23088W   25336.23024132  .00000599  00000+0  59412-4 0  9990
2 57068  43.0041 276.6645 0001235 271.0421  89.0280 15.02536993135711
STARLINK-5821           
1 57069U 23088X   25335.95138988 -.00000302  00000+0 -72629-5 0  9994
2 57069  43.0039 265.8681 0000962 273.6638  86.4095 15.02532996135649
STARLINK-5828           
1 57070U 23088Y   25336.16858005  .00000634  00000+0  62004-4 0  9990
2 57070  43.0038 264.9171 0000843 276.5204  83.5542 15.02535472135842
STARLINK-5834           
1 57071U 23088Z   25336.15857674  .00001658  00000+0  13772-3 0  9995
2 57071  43.0031 264.8470 0001325 265.2332  94.8359 15.02546520135678
STARLINK-5843           
1 57072U 23088AA  25336.16414306  .00000342  00000+0  40381-4 0  9994
2 57072  43.0033 264.8886 0001082 274.9846  85.0873 15.02536067134867
STARLINK-5838           
1 57073U 23088AB  25336.16744221  .00003352  00000+0  26294-3 0  9997
2 57073  43.0040 264.9130 0001046 265.1522  94.9201 15.02557700134863
STARLINK-5773           
1 57074U 23088AC  25336.16043280 -.00002028  00000+0 -13506-3 0  9998
2 57074  43.0051 276.9956 0001570 270.2995  89.7667 15.02536611135708
STARLINK-5542           
1 57075U 23088AD  25336.21286372 -.00001340  00000+0 -84138-4 0  9992
2 57075  43.0034 264.3873 0001024 266.2856  93.7870 15.02525163135851
STARLINK-6155           
1 57076U 23088AE  25336.16191979  .00000001  00000+0  15142-4 0  9995
2 57076  43.0049 264.8677 0001243 259.5450 100.5253 15.02535074135677
STARLINK-6194           
1 57077U 23088AF  25336.08545939  .00001797  00000+0  14815-3 0  9994
2 57077  43.0034 265.1537 0001110 266.8076  93.2639 15.02520830136007
STARLINK-6246           
1 57078U 23088AG  25336.33336806  .00032095  00000+0  18808-2 0  9994
2 57078  43.0006 263.6120 0001749 266.9179  77.7945 15.11234662  5794
