[{"OBJECT_NAME":"STARLINK-5832","OBJECT_ID":"2023-088R","EPOCH":"2025-12-02T05:36:22.832640","MEAN_MOTION":15.02517597,"ECCENTRICITY":0.00010541,"INCLINATION":43.0017,"RA_OF_ASC_NODE":276.6847,"ARG_OF_PERICENTER":249.4933,"MEAN_ANOMALY":110.5796,"EPHEMERIS_TYPE":0,"CLASSIFICATION_TYPE":"U","NORAD_CAT_ID":57063,"ELEMENT_SET_NO":999,"REV_AT_EPOCH":13571,"BSTAR":-9.8553602e-5,"MEAN_MOTION_DOT":-1.534e-5,"MEAN_MOTION_DDOT":0},{"OBJECT_NAME":"STARLINK-5822","OBJECT_ID":"2023-088S","EPOCH":"2025-12-02T04:53:21.852096","MEAN_MOTION":15.02530645,"ECCENTRICITY":0.00011314,"INCLINATION":43.0056,"RA_OF_ASC_NODE":277.3241,"ARG_OF_PERICENTER":266.5418,"MEAN_ANOMALY":93.5295,"EPHEMERIS_TYPE":0,"CLASSIFICATION_TYPE":"U","NORAD_CAT_ID":57064,"ELEMENT_SET_NO":999,"REV_AT_EPOCH":13472,"BSTAR":-3.3137145e-5,"MEAN_MOTION_DOT":-6.51e-6,"MEAN_MOTION_DDOT":0},{"OBJECT_NAME":"STARLINK-5830","OBJECT_ID":"2023-088T","EPOCH":"2025-12-02T05:22:07.364640","MEAN_MOTION":15.0253601,"ECCENTRICITY":0.00011435,"INCLINATION":43.0031,"RA_OF_ASC_NODE":277.4596,"ARG_OF_PERICENTER":270.9988,"MEAN_ANOMALY":89.0724,"EPHEMERIS_TYPE":0,"CLASSIFICATION_TYPE":"U","NORAD_CAT_ID":57065,"ELEMENT_SET_NO":999,"REV_AT_EPOCH":13472,"BSTAR":2.1228108e-5,"MEAN_MOTION_DOT":8.3e-7,"MEAN_MOTION_DDOT":0},{"OBJECT_NAME":"STARLINK-5827","OBJECT_ID":"2023-088U","EPOCH":"2025-12-02T02:29:41.034624","MEAN_MOTION":15.02533224,"ECCENTRICITY":0.00013027,"INCLINATION":43.0081,"RA_OF_ASC_NODE":277.4407,"ARG_OF_PERICENTER":269.5644,"MEAN_ANOMALY":90.505,"EPHEMERIS_TYPE":0,"CLASSIFICATION_TYPE":"U","NORAD_CAT_ID":57066,"ELEMENT_SET_NO":999,"REV_AT_EPOCH":13471,"BSTAR":1.2256393e-5,"MEAN_MOTION_DOT":-3.8e-7,"MEAN_MOTION_DDOT":0},{"OBJECT_NAME":"STARLINK-5824","OBJECT_ID":"2023-088V","EPOCH":"2025-12-02T04:48:34.041600","MEAN_MOTION":15.02533152,"ECCENTRICITY":0.00012686,"INCLINATION":43.0045,"RA_OF_ASC_NODE":277.2871,"ARG_OF_PERICENTER":268.6943,"MEAN_ANOMALY":91.3754,"EPHEMERIS_TYPE":0,"CLASSIFICATION_TYPE":"U","NORAD_CAT_ID":57067,"ELEMENT_SET_NO":999,"REV_AT_EPOCH":13570,"BSTAR":6.2252206e-5,"MEAN_MOTION_DOT":6.37e-6,"MEAN_MOTION_DDOT":0},{"OBJECT_NAME":"STARLINK-5844","OBJECT_ID":"2023-088W","EPOCH":"2025-12-02T05:31:32.850048","MEAN_MOTION":15.02536993,"ECCENTRICITY":0.00012353,"INCLINATION":43.0041,"RA_OF_ASC_NODE":276.6645,"ARG_OF_PERICENTER":271.0421,"MEAN_ANOMALY":89.028,"EPHEMERIS_TYPE":0,"CLASSIFICATION_TYPE":"U","NORAD_CAT_ID":57068,"ELEMENT_SET_NO":999,"REV_AT_EPOCH":13571,"BSTAR":5.941213e-5,"MEAN_MOTION_DOT":5.99e-6,"MEAN_MOTION_DDOT":0},{"OBJECT_NAME":"STARLINK-5821","OBJECT_ID":"2023-088X","EPOCH":"2025-12-01T22:50:00.085632","MEAN_MOTION":15.02532996,"ECCENTRICITY":9.629e-5,"INCLINATION":43.0039,"RA_OF_ASC_NODE":265.8681,"ARG_OF_PERICENTER":273.6638,"MEAN_ANOMALY":86.4095,"EPHEMERIS_TYPE":0,"CLASSIFICATION_TYPE":"U","NORAD_CAT_ID":57069,"ELEMENT_SET_NO":999,"REV_AT_EPOCH":13564,"BSTAR":-7.26294e-6,"MEAN_MOTION_DOT":-3.02e-6,"MEAN_MOTION_DDOT":0},{"OBJECT_NAME":"STARLINK-5828","OBJECT_ID":"2023-088Y","EPOCH":"2025-12-02T04:02:45.316320","MEAN_MOTION":15.02535472,"ECCENTRICITY":8.432e-5,"INCLINATION":43.0038,"RA_OF_ASC_NODE":264.9171,"ARG_OF_PERICENTER":276.5204,"MEAN_ANOMALY":83.5542,"EPHEMERIS_TYPE":0,"CLASSIFICATION_TYPE":"U","NORAD_CAT_ID":57070,"ELEMENT_SET_NO":999,"REV_AT_EPOCH":13584,"BSTAR":6.2004397e-5,"MEAN_MOTION_DOT":6.34e-6,"MEAN_MOTION_DDOT":0},{"OBJECT_NAME":"STARLINK-5834","OBJECT_ID":"2023-088Z","EPOCH":"2025-12-02T03:48:21.030336","MEAN_MOTION":15.0254652,"ECCENTRICITY":0.00013252,"INCLINATION":43.0031,"RA_OF_ASC_NODE":264.847,"ARG_OF_PERICENTER":265.2332,"MEAN_ANOMALY":94.8359,"EPHEMERIS_TYPE":0,"CLASSIFICATION_TYPE":"U","NORAD_CAT_ID":57071,"ELEMENT_SET_NO":999,"REV_AT_EPOCH":13567,"BSTAR":0.00013771768,"MEAN_MOTION_DOT":1.658e-5,"MEAN_MOTION_DDOT":0},{"OBJECT_NAME":"STARLINK-5843","OBJECT_ID":"2023-088AA","EPOCH":"2025-12-02T03:56:21.960384","MEAN_MOTION":15.02536067,"ECCENTRICITY":0.00010828,"INCLINATION":43.0033,"RA_OF_ASC_NODE":264.8886,"ARG_OF_PERICENTER":274.9846,"MEAN_ANOMALY":85.0873,"EPHEMERIS_TYPE":0,"CLASSIFICATION_TYPE":"U","NORAD_CAT_ID":57072,"ELEMENT_SET_NO":999,"REV_AT_EPOCH":13486,"BSTAR":4.038072e-5,"MEAN_MOTION_DOT":3.42e-6,"MEAN_MOTION_DDOT":0},{"OBJECT_NAME":"STARLINK-5838","OBJECT_ID":"2023-088AB","EPOCH":"2025-12-02T04:01:07.006944","MEAN_MOTION":15.025577,"ECCENTRICITY":0.00010463,"INCLINATION":43.004,"RA_OF_ASC_NODE":264.913,"ARG_OF_PERICENTER":265.1522,"MEAN_ANOMALY":94.9201,"EPHEMERIS_TYPE":0,"CLASSIFICATION_TYPE":"U","NORAD_CAT_ID":57073,"ELEMENT_SET_NO":999,"REV_AT_EPOCH":13486,"BSTAR":0.00026293654,"MEAN_MOTION_DOT":3.352e-5,"MEAN_MOTION_DDOT":0},{"OBJECT_NAME":"STARLINK-5773","OBJECT_ID":"2023-088AC","EPOCH":"2025-12-02T03:51:01.393920","MEAN_MOTION":15.02536611,"ECCENTRICITY":0.00015707,"INCLINATION":43.0051,"RA_OF_ASC_NODE":276.9956,"ARG_OF_PERICENTER":270.2995,"MEAN_ANOMALY":89.7667,"EPHEMERIS_TYPE":0,"CLASSIFICATION_TYPE":"U","NORAD_CAT_ID":57074,"ELEMENT_SET_NO":999,"REV_AT_EPOCH":13570,"BSTAR":-0.00013506121,"MEAN_MOTION_DOT":-2.028e-5,"MEAN_MOTION_DDOT":0},{"OBJECT_NAME":"STARLINK-5542","OBJECT_ID":"2023-088AD","EPOCH":"2025-12-02T05:06:31.425408","MEAN_MOTION":15.02525163,"ECCENTRICITY":0.00010242,"INCLINATION":43.0034,"RA_OF_ASC_NODE":264.3873,"ARG_OF_PERICENTER":266.2856,"MEAN_ANOMALY":93.787,"EPHEMERIS_TYPE":0,"CLASSIFICATION_TYPE":"U","NORAD_CAT_ID":57075,"ELEMENT_SET_NO":999,"REV_AT_EPOCH":13585,"BSTAR":-8.4138121e-5,"MEAN_MOTION_DOT":-1.34e-5,"MEAN_MOTION_DDOT":0},{"OBJECT_NAME":"STARLINK-6155","OBJECT_ID":"2023-088AE","EPOCH":"2025-12-02T03:53:09.869856","MEAN_MOTION":15.02535074,"ECCENTRICITY":0.00012439,"INCLINATION":43.0049,"RA_OF_ASC_NODE":264.8677,"ARG_OF_PERICENTER":259.545,"MEAN_ANOMALY":100.5253,"EPHEMERIS_TYPE":0,"CLASSIFICATION_TYPE":"U","NORAD_CAT_ID":57076,"ELEMENT_SET_NO":999,"REV_AT_EPOCH":13567,"BSTAR":1.5142035e-5,"MEAN_MOTION_DOT":1.0e-8,"MEAN_MOTION_DDOT":0},{"OBJECT_NAME":"STARLINK-6194","OBJECT_ID":"2023-088AF","EPOCH":"2025-12-02T02:03:03.691296","MEAN_MOTION":15.0252083,"ECCENTRICITY":0.00011107,"INCLINATION":43.0034,"RA_OF_ASC_NODE":265.1537,"ARG_OF_PERICENTER":266.8076,"MEAN_ANOMALY":93.2639,"EPHEMERIS_TYPE":0,"CLASSIFICATION_TYPE":"U","NORAD_CAT_ID":57077,"ELEMENT_SET_NO":999,"REV_AT_EPOCH":13600,"BSTAR":0.00014814637,"MEAN_MOTION_DOT":1.797e-5,"MEAN_MOTION_DDOT":0},{"OBJECT_NAME":"STARLINK-6246","OBJECT_ID":"2023-088AG","EPOCH":"2025-12-02T08:00:03.000384","MEAN_MOTION":15.11234662,"ECCENTRICITY":0.0001749,"INCLINATION":43.0006,"RA_OF_ASC_NODE":263.612,"ARG_OF_PERICENTER":266.9179,"MEAN_ANOMALY":77.7945,"EPHEMERIS_TYPE":0,"CLASSIFICATION_TYPE":"U","NORAD_CAT_ID":57078,"ELEMENT_SET_NO":999,"REV_AT_EPOCH":579,"BSTAR":0.0018808113,"MEAN_MOTION_DOT":0.00032095,"MEAN_MOTION_DDOT":0}]
